geocoded_address,hhs_id,ccn,facility_name,address,city,zip,fips_code,state,geohash,geocoded_hospital_address
POINT (-87.866268 30.657051),,,,,,,,,,
POINT (-86.802402 33.506798),,,,,,,,,,
POINT (-86.800882 33.504615),,,,,,,,,,
POINT (-86.805381 33.503222),,,,,,,,,,
POINT (-85.439972 32.605612),,,,,,,,,,
POINT (-86.581547 34.721226),,,,,,,,,,
POINT (-87.836677 32.503688),,,,,,,,,,
POINT (-86.236889 32.35832),,,,,,,,,,
POINT (-86.246393 32.378893),,,,,,,,,,
POINT (-86.254598 33.164666),,,,,,,,,,
POINT (-85.968394 32.93103),C010065-A,010065,RUSSELL MEDICAL CENTER,3316 HIGHWAY 280,ALEXANDER CITY,35010.0,1123.0,AL,"32.88577,-85.86917",POINT (-85.968394 32.93103)
POINT (-87.589857 34.241718),,,,,,,,,,
POINT (-91.939011 33.137339),,,,,,,,,,
POINT (-92.395905 36.343067),,,,,,,,,,
POINT (-90.635674 35.864196),,,,,,,,,,
POINT (-90.703102 35.838397),,,,,,,,,,
POINT (-91.634368 35.769566),,,,,,,,,,
POINT (-92.026468 34.201824),,,,,,,,,,
POINT (-93.72501 35.29204),,,,,,,,,,
POINT (-92.3813 34.745758),,,,,,,,,,
POINT (-92.3678 34.743601),,,,,,,,,,
POINT (-92.338251 34.750183),,,,,,,,,,
POINT (-92.321037 34.751585),,,,,,,,,,
POINT (-90.996348 36.289922),,,,,,,,,,
POINT (-92.593674 34.563662),,,,,,,,,,
POINT (-94.353957 35.354072),,,,,,,,,,
POINT (-94.357178 34.046177),,,,,,,,,,
POINT (-91.732412 35.233805),,,,,,,,,,
,C350064-B,,STANDING ROCK IHS HOSPITAL,10 NORTH RIVER ROAD,FORT YATES,58538.0,38085.0,ND,"46.11,-100.68",
,C040007-A,040007,CHI St Vincent Infirmary,TWO ST VINCENT CIRCLE,LITTLE ROCK,72205.0,5119.0,AR,"34.74957565,-92.3382277",
,C100331-A,100331,Touchton Surgery Center,"9726 TOUCHTON ROAD, SUITE 305",JACKSONVILLE,32246.0,12031.0,FL,"30.26746,-81.55554",
,C141346-A,141346,Fayette County Hospital,7TH AND TAYLOR,VANDALIA,62471.0,17051.0,IL,"38.97,-89.11",
,C261318-A,261318,Salem Memorial District Hospital,"PO BOX 774,",SALEM,65560.0,29065.0,MO,"37.63,-91.53",
,C381319-A,381319,St Anthony Hospital,2801 ST ANTHONY WAY,PENDLETON,97801.0,41059.0,OR,"45.648782,-118.812205",
,C650003-A,650003,Guam Regional Medical City,133 ROUTE 3,DEDEDO,96929.0,66010.0,GU,"13.52,144.82",
,C030074-A,030074,Sells Indian Hospital,"HIGHWAY 86, AT TOPAWA ROAD",SELLS,85634.0,4019.0,AZ,"31.92,-111.88",
,C161321-A,161321,AVERA MERRILL PIONEER HOSPITAL,1100 S 10TH AVE,ROCK RAPIDS,51246.0,19119.0,IA,"43.4166,-96.17144",
,C44016F-A,44016F,MOUNTAIN HOME VA MEDICAL CENTER,P O BOX 4000,MOUNTAIN HOME,37684.0,47179.0,TN,"36.310561,-82.37333",
,C050153-A,050153,OConnor Hospital,2105 FOREST AVE,SAN JOSE,95128.0,6085.0,CA,"37.328929,-121.939583",
,C443037-A,443037,KNOXVILLE REHABILITATION HOSPITAL,1250 TENNOVA MEDICAL WAY,KNOXVILLE,37909.0,47093.0,TN,"35.94489,-84.0388",
,C501305-A,501305,Lincoln Hospital,10 NICHOLS STREET,DAVENPORT,99122.0,53043.0,WA,"47.658996,-118.145525",
,C341320-A,341320,ALLEGHANY MEMORIAL HOSPITAL,617 DOCTORS STREET,SPARTA,28675.0,37005.0,NC,"36.509764,-81.108306",
,C334060-A,334060,Kirby Forensic Psychiatric Center,WARD ISLAND,NEW YORK,10035.0,36061.0,NY,"40.8,-73.94",
,C040161-A,040161,Arkansas Heart Hospital Encore Medical Center,1901 ENCORE WAY,BRYANT,72022.0,5125.0,AR,"34.61304,-92.520969",
,C230110-A,230110,Spectrum Health Ludington Hospital,ONE N ATKINSON DRIVE,LUDINGTON,49431.0,26105.0,MI,"43.9576488409696,-86.4294456652882",
,C234025-A,234025,Caro Center,"2000 CHAMBERS, BOX A",CARO,48723.0,26157.0,MI,"43.450507,-83.441855",
,C010012-A,010012,DeKalb Regional Medical Center,200 MED CENTER DRIVE,FORT PAYNE,35968.0,1049.0,AL,"34.44,-85.75",
,C400115-A,400115,Wilma N Vazquez Medical Center,CARR. 2 KM 39.5    ROAD NUMBER 2 BO ALGARROBO,VEGA BAJA,693.0,72145.0,PR,"18.45,-66.4",
,C250134-A,250134,Whitfield Medical Surgical Hospital,"3550 HWY 468 W, BLDG 60",WHITFIELD,39193.0,28121.0,MS,"32.24252,-90.073904",
,C010174-A,010174,THOMASVILLE REGIONAL MEDICAL CENTER,300 MED PARK DRIVE,THOMASVILLE,36784.0,1025.0,AL,"31.86683,-87.74028",
,C281300-A,281300,Harlan County Health System,"P O BOX 836, 717 BROWN ST",ALMA,68920.0,31083.0,NE,"40.104953,-99.365225",
,C400114-A,400114,Manati Medical Center,CALLE HERNANDEZ CARRION URB ATENAS,MANATI,674.0,72091.0,PR,"18.43,-66.48",
,C320059-A,320059,Shiprock - Northern Navajo Medical Center,US HWY 491 NORTH,SHIPROCK,87420.0,35045.0,NM,"36.883489,-108.7113419",
,C454138-A,454138,Garland Behavioral Hospital,2300 MARIE CURIE BLVD 5TH FLOOR,GARLAND,75042.0,48113.0,TX,"32.918788,-96.662265",
,C092003-A,092003,DCA HADLEY SNF LLC (Bridgeport Sub-acute and Rehabilitation National Harbor),4601 MLK JR AVENUE SW,WASHINGTON,20032.0,11001.0,DC,"38.824859,-77.013228",
,C45060F-A,45060F,VA AMARILLO HEALTHCARE SYSTEM,PO BOX 50600 CASHR 04A,AMARILLO,79106.0,48375.0,TX,"35.213741,-101.883595",
,C400122-A,400122,PROFESSIONAL HOSPITAL GUAYNABO INC,8 AVE LAS CUMBRES,GUAYNABO,969.0,72061.0,PR,"18.36727,-66.10366",
,H000063,,HOSPITAL INDUSTRIAL C F S E,PASEO DR. JOSE CELSO BARBOSA,SAN JUAN,921.0,72127.0,PR,"18.39716,-66.075098",
,C220162-A,220162,DANA FARBER CANCER INSTITUTE,450 BROOKLINE AVENUE,BOSTON,2115.0,25025.0,MA,"42.337602,-71.10828",
,C171382-A,171382,Atchison Hospital,800 RAVIN HILL DRIVE,ATCHISON,66002.0,20005.0,KS,"39.5214,-95.18473",
,C05114F-A,05114F,VA SAN DIEGO HEALTHCARE SYSTEM,3350 LA JOLLA VILLAGE DR,SAN DIEGO,92161.0,6073.0,CA,"32.856601,-117.20874",
,C453301-A,453301,DRISCOLL CHILDREN S HOSPITAL,3533 S ALAMEDA BOX 6530,CORPUS CHRISTI,78411.0,48355.0,TX,"27.74855,-97.386313",
,C083026-A,083026,Encompass Health Rehabilitation Hospital of Middletown (FKA HealthSouth Rehabilitation Hospital of Middletown),250 EAST HAMPDEN ROAD,MIDDLETOWN,19709.0,10003.0,DE,"39.453043,-75.677308",
,C281344-A,281344,CHERRY COUNTY HOSPITAL,"P O BOX 410, 510 NORTH GREEN ST",VALENTINE,69201.0,31031.0,NE,"42.878524,-100.539317",
,C140210-A,140210,Harrisburg Medical Center,100 DOCTOR WARREN TUTTLE DR,HARRISBURG,62946.0,17165.0,IL,"37.72534,-88.56996",
,C373036-A,373036,Mercy Rehabilitation Hospital Oklahoma City South,7900 MID-AMERICA BLVD,MIDWEST CITY,73135.0,40109.0,OK,"35.387916,-97.41182",
,C233026-A,233026,Mary Free Bed Rehabilitation Hospital,235 WEALTHY SE,GRAND RAPIDS,49503.0,26081.0,MI,"42.956949,-85.662924",
,C281316-A,281316,WEBSTER COUNTY COMMUNITY HOSPITAL,"P O BOX 465, 621 N FRANKLIN ST",RED CLOUD,68970.0,31181.0,NE,"40.091441,-98.528162",
,C362031-A,362031,Select Specialty Hospital - Southeast Ohio (FKA Select Specialty Hospital - Zanesville),"200 TAMARACK ROAD, 2ND FLOOR",NEWARK,43055.0,39089.0,OH,"40.12728,-82.33869",
,C020018-B,020018,Toksook Bay Sub-regional Clinic,"YKHC, 700 CHIEF EDDY HOFFMAN HIGHWAY",BETHEL,99559.0,2050.0,AK,"60.8,-161.77",
,C390093-A,390093,Clarion Hospital,ONE HOSPITAL DRIVE,CLARION,16214.0,42031.0,PA,"41.19202,-79.396234",
,C334053-A,334053,Bronx Psychiatric Center,1500 WATERS PLACE,BRONX,10461.0,36005.0,NY,"40.848782,-73.839362",
,C393027-A,393027,Encompass Health Rehabilitation Hospital of Harmarville (FKA HealthSouth Harmarville Rehabilitation Hospital),320 GUYS RUN ROAD,PITTSBURGH,15238.0,42003.0,PA,"40.550041,-79.871276",
,C280119-A,280119,Twelve Clans Unity Hospital (FKA Winnebago Service Unit Winnebago Hospital),HWY 77-75,WINNEBAGO,68071.0,31173.0,NE,"42.23,-96.47",
,C281303-A,281303,NIOBRARA VALLEY HOSPITAL,"P O BOX 118, 401 SOUTH 5TH STREET",LYNCH,68746.0,31015.0,NE,"42.824803,-98.468625",
,C021305-A,021305,Wrangell Medical Center,232 WOOD STREET,WRANGELL,99929.0,2280.0,AK,"56.4630577,-132.3755127",
,C250097-A,250097,Southwest Mississippi Regional Medical Center,215 MARION AV BOX 1307,MCCOMB,39649.0,28113.0,MS,"31.243611,-90.45306",
,C431338-A,431338,Avera Gregory Hospital,400 PARK STREET  POST OFFICE BOX 408,GREGORY,57533.0,46053.0,SD,"43.23719,-99.4291",
,C403025-A,403025,Encompass Health Rehabilitation Hospital of San Juan (FKA HealthSouth Rehabilitation Hospital of San Juan),UNIVERSITY DISTRICT HOSPITAL -- 3RD  FLOOR,SAN JUAN,936.0,72127.0,PR,"18.394599,-66.073805",
,C400006-A,400006,Doctors Center Hospital San Juan,PDA. 20 C/ SAN RAFAEL # 1395,FERNANDEZ JUNCOS,909.0,72127.0,PR,"18.4436,-66.0714",
,C453054-B,453054,Encompass Health Rehabilitation Hospital of Cypress,13031 WORTHAM CENTER DR,HOUSTON,77065.0,48201.0,TX,"29.92015,-95.61352",
,C281326-A,281326,Antelope Memorial Hospital,"P O BOX 229, 102 WEST 9TH ST",NELIGH,68756.0,31003.0,NE,"42.132881,-98.044344",
,C19S177-A,19S177,LAKEVIEW REGIONAL MEDICAL CENTER SENIOR BEHAVIORAL,"5025 KEYSTONE BLVD #300,",COVINGTON,70433.0,22103.0,LA,"30.412293,-90.080901",
,C400112-A,400112,University of Puerto Rico Hospital,CARR 3 KM 8 3 AVE 65TH INFANTERIA,CAROLINA,984.0,72031.0,PR,"18.3758,-65.9579",
,C500051-A,500051,Overlake Hospital Medical Center (AKA Overlake Medical Center),1035-116TH AVE NE,BELLEVUE,98004.0,53033.0,WA,"47.621445,-122.18779",
,C220010-A,220010,LAWRENCE GENERAL HOSPITAL,ONE GENERAL STREET,LAWRENCE,1842.0,25009.0,MA,"42.706941,-71.16361",
,C210038-A,210038,UMMC Midtown Campus (FKA Maryland General Hospital),827 LINDEN AVENUE,BALTIMORE,21201.0,24510.0,MD,"39.299377,-76.620434",
,C400133-A,400133,HIMA San Pablo Cupey,CARR 844 KM 5 CUPEY BAJO,SAN JUAN,928.0,72127.0,PR,"18.3587,-66.0396",
,C031309-A,031309,Sage Memorial Hospital,HIGHWAY 264 WEST AND 191 SOUTH,GANADO,86505.0,4001.0,AZ,"35.75,-109.63",
,C451333-A,451333,Martin County Hospital,600 E INTERSTATE 20     PO BOX 640,STANTON,79782.0,48317.0,TX,"32.11782,-101.82471",
,C281302-A,281302,Pawnee County Memorial Hospital,"P O BOX 433, 600 I ST",PAWNEE CITY,68420.0,31133.0,NE,"40.108473,-96.150828",
,C290058-A,290058,DIGNITY NEIGHBORHOOD HOSPITALS,1550 W CRAIG RANCH,NORTH LAS VEGAS,89031.0,32003.0,NV,"36.240363,-115.162857",
,C281363-A,281363,Community Hospital,"P O BOX 1328, 1301 EAST H ST",MCCOOK,69001.0,31145.0,NE,"40.204325,-100.607621",
,C214012-A,214012,Thomas B Finan Center,"10102 COUNTRY CLUB ROAD,  POST OFFICE BOX 1722",CUMBERLAND,21502.0,24001.0,MD,"39.65857,-78.73888",
,C281306-A,281306,Kearney County Health Services Hospital,727 EAST 1ST ST,MINDEN,68959.0,31099.0,NE,"40.49585,-98.94266",
,C221300-A,221300,MARTHA S VINEYARD HOSPITAL,"ONE HOSPITAL ROAD, FIRST FL, WING 5,  PO BOX 1477",OAK BLUFFS,2557.0,25007.0,MA,"41.45,-70.56",
,C143025-A,143025,Schwab Rehabilitation Hospital (FKA Schwab Rehab Hospital & Care Network),1401 S CALIFORNIA BLVD,CHICAGO,60608.0,17031.0,IL,"41.862429,-87.694967",
,C021308-A,021308,Norton Sound Regional Hospital,1000 GREG KRUSCHEK AVENUE (P O BOX 966),NOME,99762.0,2180.0,AK,"64.50094,-165.40597",
,C271304-A,271304,Missouri River Medical Center,1501 ST CHARLES ST,FORT BENTON,59442.0,30015.0,MT,"47.820504,-110.67218",
,C471300-A,471300,GRACE COTTAGE HOSPITAL,PO BOX 216,TOWNSHEND,5353.0,50025.0,VT,"43.099421,-72.648405",
,C350006-C,,TRINITY HOSPITAL,ONE WEST BURDICK EXPRESSWAY,MINOT,58701.0,38101.0,ND,"48.232636,-101.2938045",
,C400018-A,400018,Mennonite Hospital of Aibonito,CALLE JOSE C VASQUEZ BO. CAONILLAS,AIBONITO,705.0,72009.0,PR,"18.14,-66.26",
,C192029-A,192029,AMG SPECIALTY HOSPITAL LAFAYETTE,"4811 AMBASSADOR CAFFERY PKWY, 4TH FLOOR",LAFAYETTE,70506.0,22055.0,LA,"30.149394,-92.036392",
,C040020-A,040020,St Bernards Medical Center,225 E WASHIINGTON AVENUE,JONESBORO,72401.0,5031.0,AR,"35.837476,-90.702895",
,C292007-A,292007,AMG SPECIALTY HOSPITAL,4015 SOUTH MCLEOD,LAS VEGAS,89121.0,32003.0,NV,"36.11546,-115.10975",
,C031305-A,031305,Hopi Health Care Center,"HIGHWAY 264, MILEPOST 388",POLACCA,86042.0,4017.0,AZ,"35.82,-110.4",
,C431308-A,431308,Eureka Community Health Services Avera,200 J AVE POST OFFICE BOX 517,EUREKA,57437.0,46089.0,SD,"45.78006,-99.6302",
,C250060-A,250060,Jefferson County Hospital,870 S MAIN / PO BOX 577,FAYETTE,39069.0,28063.0,MS,"31.69548,-91.06156",
,C400111-A,400111,Hospital San Carlos Borromeo,CALLE CONCEPCION VERA AYALA #550 S,MOCA,676.0,72099.0,PR,"18.3855,-67.0844",
,C364048-A,364048,Haven Behavioral Hospital of Dayton (FKA Haven Behavioral Senior Care of Dayton),"ONE ELIZABETH PLACE, SUITE 10B",DAYTON,45417.0,39113.0,OH,"39.74,-84.2",
,C452108-A,452108,Kindred Hospital Dallas Central,8050 MEADOWS ROAD,DALLAS,75231.0,48113.0,TX,"32.886963,-96.767638",
,H000062,,LABORATORIO CLINICO PAOLI CDT SUSANA CENTENO,ROAD 997 KM 1 HM 0 CDT SUSANA CENTENO,VIEQUES,765.0,72147.0,PR,"18.15,-65.44",
,C330198-A,330198,Mount Sinai South Nassau (FKA South Nassau Communities Hospital),ONE HEALTHY WAY,OCEANSIDE,11572.0,36059.0,NY,"40.650638,-73.629571",
POINT (-111.873507 33.298691),,,,,,,,,,
POINT (-112.179439 33.610734),,,,,,,,,,
POINT (-111.977795 33.582143),,,,,,,,,,
POINT (-112.066252 33.494747),,,,,,,,,,
POINT (-112.079431 33.480298),,,,,,,,,,
POINT (-111.790095 33.582481),,,,,,,,,,
POINT (-111.922944 33.48764),,,,,,,,,,
POINT (-114.035814 35.219919),,,,,,,,,,
POINT (-110.859919 32.250572),,,,,,,,,,
POINT (-110.96828 32.181307),C03013F-A,03013F,VA S. ARIZONA HEALTHCARE SYSTEM,3601 S 6TH AVE,TUCSON,85713.0,4019.0,AZ,"32.180719,-110.964713",POINT (-110.96828 32.181307)
POINT (-114.633238 32.683899),,,,,,,,,,
POINT (-122.257994 37.856408),,,,,,,,,,
POINT (-121.975675 37.550864),,,,,,,,,,
POINT (-122.231125 37.79922),,,,,,,,,,
POINT (-122.257637 37.823888),,,,,,,,,,
POINT (-122.267901 37.837309),,,,,,,,,,
POINT (-121.880027 37.692133),C050283-A,050283,Stanford Health Care - ValleyCare Medical Center,5555 WEST LAS POSITAS BOULEVARD,PLEASANTON,94588.0,6001.0,CA,"37.693982,-121.88074",POINT (-121.880027 37.692133)
POINT (-121.849291 39.742509),C050039-A,050039,Enloe Medical Center,1531 ESPLANADE,CHICO,95926.0,6007.0,CA,"39.741734,-121.851095",POINT (-121.849291 39.742509)
POINT (-122.130891 38.006467),,,,,,,,,,
POINT (-122.030096 37.927866),,,,,,,,,,
POINT (-124.194244 41.772699),,,,,,,,,,
POINT (-119.782839 36.742712),,,,,,,,,,
POINT (-119.765891 36.837102),,,,,,,,,,
POINT (-124.142039 40.783103),,,,,,,,,,
POINT (-115.554051 32.95995),,,,,,,,,,
POINT (-115.56862 32.781498),,,,,,,,,,
POINT (-118.982482 35.397445),,,,,,,,,,
POINT (-122.917929 39.034641),,,,,,,,,,
POINT (-118.327825 34.157613),,,,,,,,,,
POINT (-117.970933 34.132227),,,,,,,,,,
POINT (-118.347779 33.949085),,,,,,,,,,
POINT (-118.158677 34.689372),,,,,,,,,,
POINT (-118.217347 34.051079),,,,,,,,,,
POINT (-118.208972 34.06077),,,,,,,,,,
POINT (-118.244364 33.924351),,,,,,,,,,
POINT (-118.449651 34.324104),,,,,,,,,,
POINT (-118.447562 34.066609),,,,,,,,,,
POINT (-118.290733 34.098146),,,,,,,,,,
POINT (-118.265524 34.036963),,,,,,,,,,
POINT (-118.203234 34.062168),,,,,,,,,,
POINT (-118.294863 34.098138),,,,,,,,,,
POINT (-117.752322 34.077585),,,,,,,,,,
POINT (-118.293521 33.831583),,,,,,,,,,
POINT (-122.537043 37.944899),,,,,,,,,,
POINT (-123.203791 39.152982),,,,,,,,,,
POINT (-121.646327 36.659979),C050334-A,050334,Salinas Valley Memorial Hospital,450 EAST ROMIE LANE,SALINAS,93901.0,6053.0,CA,"36.659105,-121.646311",POINT (-121.646327 36.659979)
POINT (-122.273403 38.277003),,,,,,,,,,
POINT (-122.475344 38.54196),,,,,,,,,,
POINT (-117.927836 33.893507),,,,,,,,,,
POINT (-117.931415 33.625136),,,,,,,,,,
POINT (-117.864861 33.782363),C050069-A,050069,St Joseph Hospital Orange,1100 WEST STEWART DR,ORANGE,92868.0,6059.0,CA,"33.782182,-117.865334",POINT (-117.864861 33.782363)
POINT (-117.890716 33.78867),,,,,,,,,,
POINT (-116.828962 33.953645),,,,,,,,,,
POINT (-116.233883 33.706235),,,,,,,,,,
POINT (-116.545598 33.838662),C050243-A,050243,Desert Regional Medical Center,1150 NORTH INDIAN CANYON DRIVE,PALM SPRINGS,92262.0,6065.0,CA,"33.838348,-116.544838",POINT (-116.545598 33.838662)
POINT (-116.408082 33.763494),,,,,,,,,,
POINT (-121.392891 38.507195),,,,,,,,,,
POINT (-121.469624 38.570243),,,,,,,,,,
POINT (-117.352833 34.072959),,,,,,,,,,
POINT (-117.26568 34.049577),,,,,,,,,,
POINT (-117.219827 34.135867),,,,,,,,,,
POINT (-117.637034 34.101004),,,,,,,,,,
POINT (-117.297324 34.470905),C050709-A,050709,Desert Valley Hospital,16850 BEAR VALLEY RD,VICTORVILLE,92395.0,6071.0,CA,"34.472514,-117.298057",POINT (-117.297324 34.470905)
POINT (-117.15417 32.800255),,,,,,,,,,
POINT (-117.150793 32.798073),,,,,,,,,,
POINT (-117.16601 32.753714),C05S025-A,05S025,UC San Diego Health - Inpatient Psychiatric Services,200 W ARBOR DR,SAN DIEGO,92103.0,6073.0,CA,"32.754108,-117.166824",POINT (-117.16601 32.753714)
POINT (-122.421584 37.786347),,,,,,,,,,
POINT (-122.45772 37.763535),,,,,,,,,,
POINT (-122.440565 37.783238),,,,,,,,,,
POINT (-120.666889 35.251126),,,,,,,,,,
POINT (-119.723112 34.429451),,,,,,,,,,
POINT (-119.758429 34.44222),,,,,,,,,,
POINT (-122.17514 37.437397),,,,,,,,,,
POINT (-122.141712 37.402819),,,,,,,,,,
POINT (-121.931903 37.314046),,,,,,,,,,
POINT (-122.176664 37.433138),,,,,,,,,,
POINT (-121.983612 36.988413),,,,,,,,,,
POINT (-122.465851 38.288564),,,,,,,,,,
POINT (-120.993987 37.666791),,,,,,,,,,
POINT (-119.158248 34.217127),,,,,,,,,,
POINT (-119.257324 34.274574),C050394-A,050394,Community Memorial Hospital,147 N BRENT ST,VENTURA,93003.0,6111.0,CA,"34.274589,-119.258124",POINT (-119.257324 34.274574)
POINT (-104.831002 39.743609),,,,,,,,,,
POINT (-104.844679 39.745983),,,,,,,,,,
POINT (-104.835018 39.741635),C063301-A,063301,Childrens Hospital Colorado - Anschutz Medical Campus,13123 E 16TH AVE,AURORA,80045.0,8001.0,CO,"39.742306,-104.835499",POINT (-104.835018 39.741635)
POINT (-107.077219 37.252776),,,,,,,,,,
POINT (-105.082979 39.970623),,,,,,,,,,
POINT (-104.992858 39.728736),,,,,,,,,,
POINT (-104.942461 39.7392),C060107-A,060107,National Jewish Health,1400 JACKSON ST,DENVER,80206.0,8031.0,CO,"39.738932,-104.942363",POINT (-104.942461 39.7392)
POINT (-104.967175 39.746089),C060014-A,060014,Presbyterian/St Lukes Medical Center,1719 E 19TH AVE,DENVER,80218.0,8031.0,CO,"39.747172,-104.967686",POINT (-104.967175 39.746089)
POINT (-104.894587 39.717574),,,,,,,,,,
POINT (-104.973482 39.670627),,,,,,,,,,
POINT (-106.382866 39.642949),,,,,,,,,,
POINT (-107.322794 39.532859),,,,,,,,,,
POINT (-105.089291 39.769328),,,,,,,,,,
POINT (-105.514088 40.372259),,,,,,,,,,
POINT (-73.553932 41.054692),,,,,,,,,,
POINT (-72.935261 41.676015),C070029-A,070029,Bristol Hospital,41 BREWSTER RD,BRISTOL,6010.0,9003.0,CT,"41.675958,-72.935763",POINT (-72.935261 41.676015)
POINT (-72.79582 41.73509),,,,,,,,,,
POINT (-72.680184 41.755412),,,,,,,,,,
POINT (-72.525161 41.781094),,,,,,,,,,
POINT (-73.088689 41.335978),,,,,,,,,,
POINT (-77.074388 38.912599),,,,,,,,,,
POINT (-77.050119 38.901169),,,,,,,,,,
POINT (-77.021896 38.916966),,,,,,,,,,
POINT (-77.10894 38.935747),,,,,,,,,,
POINT (-75.605235 39.738795),,,,,,,,,,
POINT (-82.343465 29.639183),C102022-A,102022,Select Specialty Hospital - Gainesville,1600 SW ARCHER RD 5TH FLOOR,GAINESVILLE,32610.0,12001.0,FL,"29.640116,-82.34155",POINT (-82.343465 29.639183)
POINT (-82.345877 29.638215),C10057F-A,10057F,VA NORTH FLORIDA/SOUTH GEORGIA HEALTHCARE SYSTEM - GAINES,1601 SW ARCHER RD,GAINESVILLE,32608.0,12001.0,FL,"29.637658,-82.344604",POINT (-82.345877 29.638215)
POINT (-80.288048 26.031708),,,,,,,,,,
POINT (-81.437554 30.264085),,,,,,,,,,
POINT (-87.231938 30.428669),,,,,,,,,,
POINT (-82.459297 27.937291),,,,,,,,,,
POINT (-82.137838 29.174636),C100212-A,100212,Ocala Regional Medical Center,1431 SW 1ST AVE,OCALA,34474.0,12083.0,FL,"29.15,-82.19",POINT (-82.137838 29.174636)
POINT (-80.21493 25.78821),,,,,,,,,,
POINT (-80.214946 25.790644),,,,,,,,,,
POINT (-81.538151 28.649092),,,,,,,,,,
POINT (-80.107329 26.784077),,,,,,,,,,
POINT (-81.953345 28.060173),,,,,,,,,,
POINT (-85.542758 30.764574),,,,,,,,,,
POINT (-83.636553 32.833202),,,,,,,,,,
POINT (-83.681431 32.892836),C113029-A,113029,ATRIUM HEALTH NAVICENT REHABILITATION HOSPITAL,3351 NORTHSIDE DRIVE,MACON,31210.0,13021.0,GA,"32.893215,-83.680486",POINT (-83.681431 32.892836)
POINT (-81.101394 32.028299),,,,,,,,,,
POINT (-84.315524 33.849131),,,,,,,,,,
POINT (-84.320977 33.791881),,,,,,,,,,
POINT (-84.157497 31.590227),,,,,,,,,,
POINT (-84.589476 33.745311),,,,,,,,,,
POINT (-85.179721 34.260454),,,,,,,,,,
POINT (-84.393367 33.808802),,,,,,,,,,
POINT (-84.393887 33.806584),,,,,,,,,,
POINT (-84.385209 33.769335),,,,,,,,,,
POINT (-81.484664 31.173805),,,,,,,,,,
POINT (-83.81737 34.30335),,,,,,,,,,
POINT (-84.981978 32.481714),,,,,,,,,,
POINT (-81.990978 33.469927),,,,,,,,,,
POINT (-84.255377 32.06425),,,,,,,,,,
POINT (-83.491068 31.470401),,,,,,,,,,
POINT (-83.840673 31.512386),,,,,,,,,,
POINT (144.774281 13.504491),C650001-A,650001,Guam Memorial Hospital Authority,850 GOV CARLOS G CAMACHO RD,TAMUNING,96913.0,66010.0,GU,"13.49,144.78",POINT (144.774281 13.504491)
POINT (-155.112892 19.717551),,,,,,,,,,
POINT (-155.665441 20.023219),,,,,,,,,,
POINT (-158.026145 21.369835),C120001-A,120001,Queens Medical Center - West Oahu,91-2141 FORT WEAVER RD,EWA BEACH,96706.0,15003.0,HI,"21.359453,-158.030437",POINT (-158.026145 21.369835)
POINT (-157.854965 21.308307),,,,,,,,,,
POINT (-157.850921 21.302268),,,,,,,,,,
POINT (-157.757142 21.381453),,,,,,,,,,
POINT (-159.366386 21.985784),,,,,,,,,,
POINT (-155.993977 20.763631),,,,,,,,,,
POINT (-156.488087 20.884455),C120002-A,120002,Maui Memorial Medical Center,221 MAHALANI STREET,WAILUKU,96793.0,15009.0,HI,"20.884842,-156.489528",POINT (-156.488087 20.884455)
POINT (-94.747914 40.98843),,,,,,,,,,
POINT (-92.337754 42.525973),,,,,,,,,,
POINT (-94.867997 42.05694),,,,,,,,,,
POINT (-94.991396 41.402098),C161376-A,161376,CASS COUNTY MEMORIAL HOSPITAL,1501 EAST TENTH STREET,ATLANTIC,50022.0,19029.0,IA,"41.401411,-94.991507",POINT (-94.991396 41.402098)
POINT (-95.14385 43.150157),C160112-A,160112,SPENCER MUNICIPAL HOSPITAL,1200 1ST AVENUE EAST,SPENCER,51301.0,19041.0,IA,"43.149838,-95.143833",POINT (-95.14385 43.150157)
POINT (-91.467028 42.483902),,,,,,,,,,
POINT (-90.687543 42.49511),,,,,,,,,,
POINT (-90.674358 42.492671),,,,,,,,,,
POINT (-94.388053 42.015241),,,,,,,,,,
POINT (-91.558041 40.962985),,,,,,,,,,
POINT (-92.117764 43.381891),,,,,,,,,,
POINT (-91.963116 40.985727),,,,,,,,,,
POINT (-91.550759 41.661203),C160058-B,160058,UNIVERSITY OF IOWA HOSPITALS AND CLINICS,200 HAWKINS DRIVE,IOWA CITY,52242.0,19103.0,IA,"41.659929,-91.548097",POINT (-91.550759 41.661203)
POINT (-91.548116 41.664617),,,,,,,,,,
POINT (-92.911575 41.412337),,,,,,,,,,
POINT (-92.796674 41.044816),,,,,,,,,,
POINT (-95.041406 40.723116),C161352-A,161352,CLARINDA REGIONAL HEALTH CENTER,220 ESSIE DAVISON DRIVE,CLARINDA,51632.0,19145.0,IA,"40.722954,-95.042607",POINT (-95.041406 40.723116)
POINT (-95.368554 40.753644),,,,,,,,,,
POINT (-93.633188 41.590795),,,,,,,,,,
POINT (-93.62568 41.598048),,,,,,,,,,
POINT (-93.790638 41.597854),,,,,,,,,,
POINT (-95.838457 41.268171),,,,,,,,,,
POINT (-95.835709 41.268756),C160047-A,160047,JENNIE EDMUNDSON MEMORIAL HOSPITAL,933 EAST PIERCE STREET,COUNCIL BLUFFS,51503.0,19155.0,IA,"41.269164,-95.83508",POINT (-95.835709 41.268756)
POINT (-90.51736 41.566163),,,,,,,,,,
POINT (-90.593782 41.545503),,,,,,,,,,
POINT (-96.045648 42.994889),,,,,,,,,,
POINT (-93.610617 42.032078),,,,,,,,,,
POINT (-93.31232 40.754474),C161358-A,161358,Wayne County Hospital,417 SOUTH EAST STREET,CORYDON,50060.0,19185.0,IA,"40.754205,-93.311855",POINT (-93.31232 40.754474)
POINT (-94.191249 42.490422),,,,,,,,,,
POINT (-96.406292 42.51881),,,,,,,,,,
POINT (-116.190405 43.603923),,,,,,,,,,
POINT (-116.194781 43.619209),C13003F-A,13003F,BOISE VA MEDICAL CENTER,500 W FORT ST,BOISE,83702.0,16001.0,ID,"43.620756,-116.190326",POINT (-116.194781 43.619209)
POINT (-116.253622 43.613868),,,,,,,,,,
POINT (-112.4189 42.872621),,,,,,,,,,
POINT (-111.989111 43.472526),,,,,,,,,,
POINT (-116.792783 47.694456),,,,,,,,,,
POINT (-117.001406 46.728705),,,,,,,,,,
POINT (-88.217397 40.117189),,,,,,,,,,
POINT (-87.651674 41.936318),,,,,,,,,,
POINT (-87.813386 41.988883),C140117-A,140117,AMITA Health Resurrection Medical Center Chicago (FKA Presence Resurrection Medical Center),7435 W TALCOTT AVENUE,CHICAGO,60631.0,17031.0,IL,"41.987431,-87.814394",POINT (-87.813386 41.988883)
POINT (-87.636429 41.93395),,,,,,,,,,
POINT (-87.669039 41.875157),,,,,,,,,,
POINT (-87.668951 41.869159),,,,,,,,,,
POINT (-87.622034 41.89677),,,,,,,,,,
POINT (-87.698272 41.855538),,,,,,,,,,
POINT (-87.568623 41.749496),,,,,,,,,,
POINT (-87.604925 41.787956),,,,,,,,,,
POINT (-87.83321 41.858732),,,,,,,,,,
POINT (-89.251945 37.774777),,,,,,,,,,
POINT (-87.807611 42.188803),,,,,,,,,,
POINT (-90.159831 38.899034),,,,,,,,,,
POINT (-87.59243 40.131808),,,,,,,,,,
POINT (-88.95713 37.729786),,,,,,,,,,
POINT (-85.099458 41.187123),,,,,,,,,,
POINT (-85.896574 39.215876),,,,,,,,,,
POINT (-86.475612 40.078607),,,,,,,,,,
POINT (-85.414326 40.197584),,,,,,,,,,
POINT (-86.941207 38.393741),,,,,,,,,,
POINT (-85.829962 41.564327),,,,,,,,,,
POINT (-86.023955 40.047026),,,,,,,,,,
POINT (-85.769609 39.795065),,,,,,,,,,
POINT (-85.891321 38.956742),,,,,,,,,,
POINT (-86.076782 39.480634),,,,,,,,,,
POINT (-87.534213 38.67292),,,,,,,,,,
POINT (-86.731344 41.600946),,,,,,,,,,
POINT (-86.898142 41.659464),,,,,,,,,,
POINT (-87.448542 41.634064),,,,,,,,,,
POINT (-87.357023 41.599436),,,,,,,,,,
POINT (-87.52201 41.61449),,,,,,,,,,
POINT (-87.258916 41.513396),,,,,,,,,,
POINT (-87.335601 41.458244),,,,,,,,,,
POINT (-87.506294 41.549736),,,,,,,,,,
POINT (-86.082667 39.647449),C150162-A,150162,Franciscan Health Indianapolis (FKA Franciscan St Francis Health - Indianapolis),8111 S EMERSON AVE,INDIANAPOLIS,46237.0,18097.0,IN,"39.648438,-86.080092",POINT (-86.082667 39.647449)
POINT (-86.165259 39.790571),,,,,,,,,,
POINT (-86.175493 39.775123),C150056-A,150056,IU Health University Hospital,550 UNIVERSITY BLVD,INDIANAPOLIS,46202.0,18097.0,IN,"39.775505,-86.176752",POINT (-86.175493 39.775123)
POINT (-86.196008 39.911996),,,,,,,,,,
POINT (-86.073805 39.787363),C150074-A,150074,Community Hospital East,1500 N RITTER AVE,INDIANAPOLIS,46219.0,18097.0,IN,"39.787035,-86.07561",POINT (-86.073805 39.787363)
POINT (-86.474936 38.567704),,,,,,,,,,
POINT (-86.596093 41.057369),,,,,,,,,,
POINT (-85.223378 39.305725),,,,,,,,,,
POINT (-85.78397 39.560016),,,,,,,,,,
POINT (-86.174651 41.704375),,,,,,,,,,
POINT (-84.996428 41.634879),,,,,,,,,,
POINT (-86.807164 40.403025),,,,,,,,,,
POINT (-86.838382 40.394171),,,,,,,,,,
POINT (-87.504987 37.962405),,,,,,,,,,
POINT (-87.570729 37.983147),,,,,,,,,,
POINT (-87.406841 39.419441),,,,,,,,,,
POINT (-87.4068 39.485357),,,,,,,,,,
POINT (-95.249953 38.981235),,,,,,,,,,
POINT (-94.773494 38.921426),,,,,,,,,,
POINT (-95.638524 37.0404),,,,,,,,,,
POINT (-97.894648 38.077764),,,,,,,,,,
POINT (-97.610525 38.833271),,,,,,,,,,
POINT (-97.332965 37.698417),,,,,,,,,,
POINT (-95.696021 39.051231),,,,,,,,,,
POINT (-95.724973 39.026261),,,,,,,,,,
POINT (-95.696692 39.056107),,,,,,,,,,
POINT (-82.635123 38.469998),,,,,,,,,,
POINT (-87.070139 37.777483),,,,,,,,,,
POINT (-84.521382 38.03157),,,,,,,,,,
POINT (-84.50977 38.030667),,,,,,,,,,
POINT (-84.513937 38.018877),,,,,,,,,,
POINT (-85.875148 37.710075),,,,,,,,,,
POINT (-85.749614 38.245887),,,,,,,,,,
POINT (-85.745042 38.248445),,,,,,,,,,
POINT (-84.561842 39.014683),,,,,,,,,,
POINT (-84.110763 37.118935),,,,,,,,,,
POINT (-83.226528 37.278987),C180029-A,180029,HAZARD ARH REGIONAL MEDICAL CENTER,100 MEDICAL CENTER DRIVE,HAZARD,41701.0,21193.0,KY,"37.28047,-83.23262",POINT (-83.226528 37.278987)
POINT (-83.442432 38.180031),,,,,,,,,,
POINT (-86.429962 36.996265),,,,,,,,,,
POINT (-93.722268 32.499989),,,,,,,,,,
POINT (-93.778869 32.483879),,,,,,,,,,
POINT (-91.111528 30.401318),,,,,,,,,,
POINT (-92.037717 30.14844),,,,,,,,,,
POINT (-90.806463 29.780225),,,,,,,,,,
POINT (-90.076121 29.955263),,,,,,,,,,
POINT (-92.11479 32.499732),C190125-A,190125,St Francis Medical Center,309 JACKSON STREET,MONROE,71201.0,22073.0,LA,"32.499945,-92.114248",POINT (-92.11479 32.499732)
POINT (-92.461454 31.281726),C190019-A,190019,CHRISTUS St Frances Cabrini Hospital,3330 MASONIC DRIVE,ALEXANDRIA,71301.0,22079.0,LA,"31.28224,-92.46199",POINT (-92.461454 31.281726)
POINT (-90.116208 30.466219),,,,,,,,,,
POINT (-70.273239 41.654288),,,,,,,,,,
POINT (-73.248269 42.459415),,,,,,,,,,
POINT (-72.605155 42.120538),,,,,,,,,,
POINT (-71.074855 42.335174),,,,,,,,,,
POINT (-71.107661 42.335954),,,,,,,,,,
POINT (-71.104783 42.337629),,,,,,,,,,
POINT (-71.108326 42.337944),,,,,,,,,,
POINT (-71.068777 42.3624),,,,,,,,,,
POINT (-71.105498 42.340581),,,,,,,,,,
POINT (-78.731528 39.648265),,,,,,,,,,
POINT (-76.622298 39.1388),,,,,,,,,,
POINT (-76.66886 39.25355),,,,,,,,,,
POINT (-76.590792 39.29714),,,,,,,,,,
POINT (-76.662345 39.354617),,,,,,,,,,
POINT (-76.61355 39.29255),,,,,,,,,,
POINT (-76.595521 38.559984),,,,,,,,,,
POINT (-75.831076 39.60836),,,,,,,,,,
POINT (-76.956948 39.0506),,,,,,,,,,
POINT (-76.999658 38.984068),,,,,,,,,,
POINT (-77.683047 39.623656),,,,,,,,,,
POINT (-75.598189 38.363096),,,,,,,,,,
POINT (-75.210472 38.338604),,,,,,,,,,
POINT (-69.786965 44.362751),,,,,,,,,,
POINT (-68.749828 44.809907),,,,,,,,,,
POINT (-83.704783 43.021929),,,,,,,,,,
POINT (-85.64153 44.761645),,,,,,,,,,
POINT (-84.534816 42.733609),,,,,,,,,,
POINT (-85.58133 42.286125),,,,,,,,,,
POINT (-85.665037 42.970517),,,,,,,,,,
POINT (-85.722926 42.857749),,,,,,,,,,
POINT (-87.411037 46.543081),,,,,,,,,,
POINT (-84.261735 43.63565),,,,,,,,,,
POINT (-83.389075 41.925143),,,,,,,,,,
POINT (-83.192591 42.517674),,,,,,,,,,
POINT (-83.955552 43.428435),,,,,,,,,,
POINT (-83.961853 43.443659),,,,,,,,,,
POINT (-83.659819 42.261803),,,,,,,,,,
POINT (-83.729265 42.285336),,,,,,,,,,
POINT (-82.914914 42.418972),,,,,,,,,,
POINT (-83.057892 42.351375),,,,,,,,,,
POINT (-83.08455 42.366129),C230053-A,230053,Henry Ford Hospital,2799 W GRAND BLVD,DETROIT,48202.0,26163.0,MI,"42.36795,-83.086137",POINT (-83.08455 42.366129)
POINT (-83.058198 42.3519),C230297-A,230297,Karmanos Cancer Center (AKA Barbara Ann Karmanos Cancer Hospital),4100 JOHN R,DETROIT,48201.0,26163.0,MI,"42.352841,-83.056713",POINT (-83.058198 42.3519)
POINT (-83.06039 42.355162),,,,,,,,,,
POINT (-94.898403 47.501354),,,,,,,,,,
POINT (-93.983802 44.165042),,,,,,,,,,
POINT (-94.205143 46.362473),,,,,,,,,,
POINT (-93.402975 44.8657),,,,,,,,,,
POINT (-93.262588 44.956237),,,,,,,,,,
POINT (-93.263009 44.971667),,,,,,,,,,
POINT (-95.599049 43.621947),,,,,,,,,,
POINT (-92.465915 44.023482),,,,,,,,,,
POINT (-96.07243 46.274948),,,,,,,,,,
POINT (-94.217407 45.567592),,,,,,,,,,
POINT (-92.590847 40.192468),,,,,,,,,,
POINT (-92.328624 38.937674),,,,,,,,,,
POINT (-92.327451 38.937599),,,,,,,,,,
POINT (-92.317039 38.950669),,,,,,,,,,
POINT (-94.77025 39.770201),C260006-A,260006,Mosaic Life Care at St Joseph - Medical Center,5325 FARAON STREET,SAINT JOSEPH,64506.0,29021.0,MO,"39.772278,-94.770551",POINT (-94.77025 39.770201)
POINT (-90.443287 36.788987),,,,,,,,,,
POINT (-89.571931 37.302224),,,,,,,,,,
POINT (-89.540936 37.311273),,,,,,,,,,
POINT (-94.424547 39.276633),,,,,,,,,,
POINT (-94.551852 39.15081),,,,,,,,,,
POINT (-92.182379 38.566355),,,,,,,,,,
POINT (-92.22067 38.560058),,,,,,,,,,
POINT (-91.001539 38.55199),,,,,,,,,,
POINT (-94.325465 40.252423),,,,,,,,,,
POINT (-93.278091 37.144664),,,,,,,,,,
POINT (-91.875554 36.737909),,,,,,,,,,
POINT (-94.578593 39.082706),,,,,,,,,,
POINT (-94.590127 39.046477),,,,,,,,,,
POINT (-94.605907 38.935007),,,,,,,,,,
POINT (-94.558253 39.007202),,,,,,,,,,
POINT (-94.575784 39.085151),C260048-A,260048,Truman Mecial Center Hospital Hill,2301 HOLMES STREET,KANSAS CITY,64108.0,29095.0,MO,"39.08451,-94.575194",POINT (-94.575784 39.085151)
POINT (-94.527089 37.054342),,,,,,,,,,
POINT (-90.395433 38.19585),,,,,,,,,,
POINT (-89.740055 36.236855),,,,,,,,,,
POINT (-93.222089 38.699051),,,,,,,,,,
POINT (-91.785501 37.951443),,,,,,,,,,
POINT (-90.484635 38.780418),C260005-A,260005,SSM Health St Joseph Hospital - St Charles,300 1ST CAPITOL DR,ST CHARLES,63301.0,29183.0,MO,"38.78056,-90.483813",POINT (-90.484635 38.780418)
POINT (-90.443636 38.635613),,,,,,,,,,
POINT (-90.263006 38.635904),,,,,,,,,,
POINT (-90.238593 38.620893),C269807-A,269807,SSM Health Cardinal Glennon Childrens Hospital,1465 SOUTH GRAND BOULEVARD,SAINT LOUIS,63104.0,29510.0,MO,"38.62124,-90.2385",POINT (-90.238593 38.620893)
POINT (-90.229844 38.641462),,,,,,,,,,
POINT (-90.237354 38.624414),,,,,,,,,,
POINT (-90.261212 38.638662),,,,,,,,,,
POINT (-93.210263 39.091319),,,,,,,,,,
POINT (-89.989881 34.976181),,,,,,,,,,
POINT (-89.997923 34.967934),,,,,,,,,,
POINT (-89.823755 33.77557),,,,,,,,,,
POINT (-90.178223 32.314232),,,,,,,,,,
POINT (-90.165103 32.333691),C250048-A,250048,St Dominic Hospital (AKA St Dominic Jackson Memorial Hospital),969 LAKELAND DR,JACKSON,39216.0,28049.0,MS,"32.332134,-90.165086",POINT (-90.165103 32.333691)
POINT (-90.167306 32.326795),C25043F-A,25043F,G. V. (SONNY) MONTGOMERY VA MEDICAL CENTER (JACKSON),1500 E WOODROW WILSON DR,JACKSON,39216.0,28049.0,MS,"32.328464,-90.168453",POINT (-90.167306 32.326795)
POINT (-90.255475 32.28684),C250072-A,250072,Merit Health Central (FKA Central Mississippi Medical Center),1850 CHADWICK DR,JACKSON,39204.0,28049.0,MS,"32.288187,-90.25569",POINT (-90.255475 32.28684)
POINT (-88.53277 30.374664),,,,,,,,,,
POINT (-89.522076 34.335864),,,,,,,,,,
POINT (-88.713023 34.238839),,,,,,,,,,
POINT (-88.42907 33.526414),,,,,,,,,,
POINT (-88.81824 33.47635),,,,,,,,,,
POINT (-88.997369 34.48623),,,,,,,,,,
POINT (-114.324965 48.215324),C270051-A,270051,Kalispell Regional Medical Center,310 SUNNYVIEW LANE,KALISPELL,59901.0,30029.0,MT,"48.214763,-114.323499",POINT (-114.324965 48.215324)
POINT (-111.017239 45.670289),,,,,,,,,,
POINT (-114.046495 46.845604),,,,,,,,,,
POINT (-114.00063 46.874103),,,,,,,,,,
POINT (-110.525425 45.676043),,,,,,,,,,
POINT (-112.546445 46.008894),,,,,,,,,,
POINT (-108.514427 45.790314),,,,,,,,,,
POINT (-108.520001 45.792877),C270049-A,270049,St Vincent Healthcare,1233 N 30TH ST,BILLINGS,59101.0,30111.0,MT,"45.793164,-108.519877",POINT (-108.520001 45.792877)
POINT (-79.437157 36.090604),,,,,,,,,,
POINT (-81.177925 35.918469),,,,,,,,,,
POINT (-78.25925 34.03181),,,,,,,,,,
POINT (-82.537147 35.482243),,,,,,,,,,
POINT (-80.435729 35.399112),,,,,,,,,,
POINT (-81.265152 35.714688),,,,,,,,,,
POINT (-77.067866 35.112739),,,,,,,,,,
POINT (-78.878136 35.08966),,,,,,,,,,
POINT (-78.936539 36.010576),,,,,,,,,,
POINT (-80.044363 36.092836),C340014-C,340014,Novant Health Kernersville Medical Center,1750 KERNERSVILLE MEDICAL PKWY,KERNERSVILLE,27284.0,37067.0,NC,"36.091325,-80.043871",POINT (-80.044363 36.092836)
POINT (-80.298519 36.073892),,,,,,,,,,
POINT (-80.179794 36.076873),,,,,,,,,,
POINT (-81.143023 35.274593),,,,,,,,,,
POINT (-79.828696 36.08146),,,,,,,,,,
POINT (-82.468145 35.320814),,,,,,,,,,
POINT (-82.470551 35.318834),,,,,,,,,,
POINT (-80.796515 35.58872),,,,,,,,,,
POINT (-80.913708 35.196865),,,,,,,,,,
POINT (-80.7385 35.137858),,,,,,,,,,
POINT (-80.809634 35.204937),,,,,,,,,,
POINT (-80.825476 35.212973),,,,,,,,,,
POINT (-80.891913 35.246642),,,,,,,,,,
POINT (-80.860189 35.410961),,,,,,,,,,
POINT (-79.453922 35.205724),,,,,,,,,,
POINT (-76.22002 36.32153),,,,,,,,,,
POINT (-82.212575 35.239027),C341322-A,341322,ST  LUKE S HOSPITAL,101 HOSPITAL DRIVE,COLUMBUS,28722.0,37149.0,NC,"35.239643,-82.21266",POINT (-82.212575 35.239027)
POINT (-80.471457 35.681735),,,,,,,,,,
POINT (-80.487085 35.681319),C34017F-A,34017F,W.G. (BILL) HEFNER SALISBURY VA MEDICAL CENTER (SALSBURY),1601 BRENNER AVENUE,SALISBURY,28144.0,37159.0,NC,"35.683538,-80.489515",POINT (-80.487085 35.681319)
POINT (-78.323635 35.007783),,,,,,,,,,
POINT (-79.47042 34.7517),C340008-A,340008,Scotland Memorial Hospital,500 LAUCHWOOD DR,LAURINBURG,28352.0,37165.0,NC,"34.752732,-79.468512",POINT (-79.47042 34.7517)
POINT (-80.453168 35.254706),,,,,,,,,,
POINT (-78.807124 35.732708),,,,,,,,,,
POINT (-78.863625 35.871661),,,,,,,,,,
POINT (-77.953336 35.400833),,,,,,,,,,
POINT (-77.938343 35.767119),,,,,,,,,,
POINT (-81.383503 35.729379),,,,,,,,,,
POINT (-100.748551 46.788144),,,,,,,,,,
POINT (-96.028839 41.237905),,,,,,,,,,
POINT (-96.699047 40.790004),,,,,,,,,,
POINT (-97.450993 42.032525),,,,,,,,,,
POINT (-71.13785 44.060011),,,,,,,,,,
POINT (-71.156548 44.487099),,,,,,,,,,
POINT (-71.554156 44.48699),,,,,,,,,,
POINT (-71.825316 44.316234),C301302-A,301302,Littleton Regional Healthcare,600 ST JOHNSBURY ROAD,LITTLETON,3561.0,33009.0,NH,"44.317667,-71.826335",POINT (-71.825316 44.316234)
POINT (-71.473849 42.991071),,,,,,,,,,
POINT (-71.437231 42.98386),,,,,,,,,,
POINT (-71.480127 42.750352),,,,,,,,,,
POINT (-71.461896 42.755903),,,,,,,,,,
POINT (-71.543464 43.193289),,,,,,,,,,
POINT (-71.517515 43.21576),,,,,,,,,,
POINT (-71.561352 43.196099),,,,,,,,,,
POINT (-70.788052 43.063988),,,,,,,,,,
POINT (-70.875338 43.212638),,,,,,,,,,
POINT (-70.961195 43.298189),,,,,,,,,,
POINT (-74.433995 39.35777),,,,,,,,,,
POINT (-74.514622 39.472393),,,,,,,,,,
POINT (-74.057954 40.884032),,,,,,,,,,
POINT (-74.069316 41.057185),,,,,,,,,,
POINT (-74.58621 39.977274),,,,,,,,,,
POINT (-74.881211 40.048705),,,,,,,,,,
POINT (-75.114653 39.941461),,,,,,,,,,
POINT (-75.058659 39.447506),C310032-B,310032,Inspira Medical Center Vineland (FKA South Jersey Healthcare Regional Medical Center),1505 W SHERMAN AVE,VINELAND,8360.0,34011.0,NJ,"39.445387,-75.058741",POINT (-75.058659 39.447506)
POINT (-74.175131 40.785228),,,,,,,,,,
POINT (-74.302385 40.763939),,,,,,,,,,
POINT (-74.204288 40.8123),,,,,,,,,,
POINT (-74.213878 40.710104),,,,,,,,,,
POINT (-75.149563 39.717915),,,,,,,,,,
POINT (-73.995765 40.794166),C310003-A,310003,Palisades Medical Center,7600 RIVER RD,NORTH BERGEN,7047.0,34017.0,NJ,"40.793475,-73.996099",POINT (-73.995765 40.794166)
POINT (-74.67483 40.21712),,,,,,,,,,
POINT (-74.322689 40.383936),,,,,,,,,,
POINT (-73.983666 40.295038),,,,,,,,,,
POINT (-74.149048 40.373045),,,,,,,,,,
POINT (-74.06343 40.353746),,,,,,,,,,
POINT (-74.465049 40.78804),,,,,,,,,,
POINT (-74.310184 40.959096),,,,,,,,,,
POINT (-74.129748 40.078327),,,,,,,,,,
POINT (-74.217362 40.074107),,,,,,,,,,
POINT (-74.286515 39.720713),,,,,,,,,,
POINT (-74.214585 39.965098),,,,,,,,,,
POINT (-74.584009 40.643227),,,,,,,,,,
POINT (-74.595695 40.568854),,,,,,,,,,
POINT (-74.291686 40.612237),C310024-A,310024,RWJ University Hospital Rahway,865 STONE ST,RAHWAY,7065.0,34039.0,NJ,"40.61298,-74.290948",POINT (-74.291686 40.612237)
POINT (-74.354543 40.712576),C310051-A,310051,Overlook Medical Center,99 BEAUVOIR AVENUE,SUMMIT,7902.0,34039.0,NJ,"40.741378,-74.36003",POINT (-74.354543 40.712576)
POINT (-74.814159 40.861314),,,,,,,,,,
POINT (-106.553116 35.094588),,,,,,,,,,
POINT (-106.600423 35.166422),,,,,,,,,,
POINT (-106.577664 35.054285),,,,,,,,,,
POINT (-106.717544 35.078406),,,,,,,,,,
POINT (-108.176012 36.756156),,,,,,,,,,
POINT (-106.654177 35.248844),,,,,,,,,,
POINT (-105.949337 35.657182),,,,,,,,,,
POINT (-105.952305 35.645937),,,,,,,,,,
POINT (-119.781729 39.201898),,,,,,,,,,
POINT (-118.76518 39.474876),C291313-A,291313,Banner Churchill Community Hospital,801 EAST WILLIAMS AVENUE,FALLON,89406.0,32001.0,NV,"39.476192,-118.765792",POINT (-118.76518 39.474876)
POINT (-115.109228 36.114934),,,,,,,,,,
POINT (-115.183575 36.053931),,,,,,,,,,
POINT (-115.166362 36.158942),,,,,,,,,,
POINT (-115.158321 36.120819),,,,,,,,,,
POINT (-115.131625 36.07173),,,,,,,,,,
POINT (-114.113778 36.808955),,,,,,,,,,
POINT (-115.243429 36.034566),,,,,,,,,,
POINT (-119.719994 38.91877),,,,,,,,,,
POINT (-117.728374 40.971781),,,,,,,,,,
POINT (-114.511827 37.622396),,,,,,,,,,
POINT (-119.753952 39.427815),,,,,,,,,,
POINT (-119.796721 39.524747),,,,,,,,,,
POINT (-119.805865 39.476635),,,,,,,,,,
POINT (-119.752223 39.428395),,,,,,,,,,
POINT (-73.748921 42.674636),,,,,,,,,,
POINT (-77.950013 42.123016),,,,,,,,,,
POINT (-73.911604 40.843651),,,,,,,,,,
POINT (-75.914075 42.086413),,,,,,,,,,
POINT (-78.426977 42.089447),,,,,,,,,,
POINT (-76.56447 42.940766),,,,,,,,,,
POINT (-79.232925 42.091113),,,,,,,,,,
POINT (-79.569397 42.327901),,,,,,,,,,
POINT (-76.826745 42.099234),,,,,,,,,,
POINT (-73.466695 44.700423),,,,,,,,,,
POINT (-73.777067 42.24599),,,,,,,,,,
POINT (-74.641859 42.147462),,,,,,,,,,
POINT (-75.128476 42.164638),,,,,,,,,,
POINT (-73.93563 41.694575),C330023-A,330023,Vassar Brothers Medical Center,45 READE PLACE,POUGHKEEPSIE,12601.0,36027.0,NY,"41.693794,-73.935606",POINT (-73.93563 41.694575)
POINT (-73.929503 41.717405),,,,,,,,,,
POINT (-73.911774 41.934571),C330049-A,330049,Northern Dutchess Hospital,6511 SPRINGBROOK AVENUE,RHINEBECK,12572.0,36027.0,NY,"41.935307,-73.912753",POINT (-73.911774 41.934571)
POINT (-73.962875 41.540975),,,,,,,,,,
POINT (-78.829151 42.927175),,,,,,,,,,
POINT (-78.865021 42.898533),C330354-A,330354,Roswell Park Comprehensive Cancer Center (FKA Roswell Park Cancer Institute),ELM AND CARLTON STREETS,BUFFALO,14203.0,36029.0,NY,"42.89,-78.87",POINT (-78.865021 42.898533)
POINT (-78.849596 42.929473),C330078-A,330078,Sisters of Charity Hospital,2157 MAIN ST,BUFFALO,14214.0,36029.0,NY,"42.929435,-78.849391",POINT (-78.849596 42.929473)
POINT (-78.78432 42.91414),,,,,,,,,,
POINT (-78.659196 42.508483),,,,,,,,,,
POINT (-74.144632 44.345029),,,,,,,,,,
POINT (-74.331469 43.067973),,,,,,,,,,
POINT (-78.177183 43.003939),,,,,,,,,,
POINT (-74.84766 43.043935),,,,,,,,,,
POINT (-75.920121 44.337172),,,,,,,,,,
POINT (-75.912725 43.965077),,,,,,,,,,
POINT (-73.945128 40.654459),,,,,,,,,,
POINT (-74.023717 40.609071),C33020F-A,33020F,VA NEW YORK HARBOR HEALTHCARE SYSTEM - BROOKLYN,800 POLY PL,BROOKLYN,11209.0,36047.0,NY,"40.609789,-74.027593",POINT (-74.023717 40.609071)
POINT (-77.700314 42.552038),,,,,,,,,,
POINT (-75.541928 42.813814),C331316-A,331316,Community Memorial Hospital,150 BROAD STREET,HAMILTON,13346.0,36053.0,NY,"42.812047,-75.544208",POINT (-75.541928 42.813814)
POINT (-75.653598 43.078687),,,,,,,,,,
POINT (-77.607295 43.136451),C330164-A,330164,Highland Hospital,1000 SOUTH AVENUE,ROCHESTER,14620.0,36055.0,NY,"43.135629,-77.606168",POINT (-77.607295 43.136451)
POINT (-77.584428 43.192588),,,,,,,,,,
POINT (-77.701451 43.192588),,,,,,,,,,
POINT (-77.68614 43.184625),,,,,,,,,,
POINT (-74.215651 42.95352),,,,,,,,,,
POINT (-73.478545 40.725805),,,,,,,,,,
POINT (-73.553707 40.725306),,,,,,,,,,
POINT (-73.708419 40.780662),,,,,,,,,,
POINT (-73.643382 40.741684),,,,,,,,,,
POINT (-73.633236 40.688191),,,,,,,,,,
POINT (-73.672669 40.804505),,,,,,,,,,
POINT (-73.685685 40.681559),,,,,,,,,,
POINT (-73.955794 40.764053),,,,,,,,,,
POINT (-73.953228 40.765746),,,,,,,,,,
POINT (-73.953632 40.790361),,,,,,,,,,
POINT (-78.670979 43.176418),,,,,,,,,,
POINT (-78.862424 43.026221),,,,,,,,,,
POINT (-75.267419 43.083514),,,,,,,,,,
POINT (-76.138225 43.041299),,,,,,,,,,
POINT (-76.14934 43.055797),,,,,,,,,,
POINT (-76.170281 43.008677),,,,,,,,,,
POINT (-77.289924 42.874927),,,,,,,,,,
POINT (-74.369415 41.439962),,,,,,,,,,
POINT (-74.682593 41.367766),C330135-A,330135,Bon Secours Community Hospital,160 EAST MAIN STREET,PORT JERVIS,12771.0,36071.0,NY,"41.367738,-74.682091",POINT (-74.682593 41.367766)
POINT (-78.397073 43.22369),,,,,,,,,,
POINT (-76.516001 43.454141),,,,,,,,,,
POINT (-73.815672 40.700271),,,,,,,,,,
POINT (-74.086954 40.584051),,,,,,,,,,
POINT (-74.106682 40.635456),,,,,,,,,,
POINT (-73.925078 41.095724),,,,,,,,,,
POINT (-74.136136 41.112383),,,,,,,,,,
POINT (-75.474359 44.338278),,,,,,,,,,
POINT (-74.907893 44.936412),C330223-A,330223,Massena Memorial Hospital,1 HOSPITAL DRIVE,MASSENA,13662.0,36089.0,NY,"44.936304,-74.908852",POINT (-74.907893 44.936412)
POINT (-75.500014 44.692069),,,,,,,,,,
POINT (-74.981481 44.676998),,,,,,,,,,
POINT (-75.055826 44.162816),,,,,,,,,,
POINT (-73.797121 43.084761),,,,,,,,,,
POINT (-73.917988 42.819574),,,,,,,,,,
POINT (-74.483008 42.686257),,,,,,,,,,
POINT (-76.969841 42.136107),,,,,,,,,,
POINT (-77.662034 42.357131),,,,,,,,,,
POINT (-72.361469 41.110947),,,,,,,,,,
POINT (-73.417463 40.878899),,,,,,,,,,
POINT (-72.978157 40.779478),,,,,,,,,,
POINT (-73.053019 40.938242),,,,,,,,,,
POINT (-73.220131 40.867667),,,,,,,,,,
POINT (-72.380983 40.885734),,,,,,,,,,
POINT (-73.294768 40.695844),C330286-A,330286,Good Samaritan Hospital Medical Center,1000 MONTAUK HIGHWAY,WEST ISLIP,11795.0,36103.0,NY,"40.694087,-73.294465",POINT (-73.294768 40.695844)
POINT (-74.736678 41.706428),,,,,,,,,,
POINT (-76.536276 42.46843),,,,,,,,,,
POINT (-74.379693 41.733187),,,,,,,,,,
POINT (-77.100671 43.059959),,,,,,,,,,
POINT (-73.724453 41.196659),,,,,,,,,,
POINT (-73.769794 41.026273),,,,,,,,,,
POINT (-73.755342 41.014357),,,,,,,,,,
POINT (-73.884967 40.968234),,,,,,,,,,
POINT (-73.859619 41.107589),,,,,,,,,,
POINT (-78.132426 42.754534),,,,,,,,,,
POINT (-83.898113 40.88755),,,,,,,,,,
POINT (-80.795674 41.880148),,,,,,,,,,
POINT (-80.720889 40.098644),,,,,,,,,,
POINT (-81.607239 41.507309),,,,,,,,,,
POINT (-81.466418 41.504785),,,,,,,,,,
POINT (-81.83291 41.37208),,,,,,,,,,
POINT (-84.635146 40.088791),,,,,,,,,,
POINT (-82.93926 40.143214),,,,,,,,,,
POINT (-83.425478 39.548262),,,,,,,,,,
POINT (-82.91235 39.980419),,,,,,,,,,
POINT (-82.979128 39.952387),,,,,,,,,,
POINT (-81.576677 40.040477),,,,,,,,,,
POINT (-84.343886 39.252501),,,,,,,,,,
POINT (-84.511113 39.120839),,,,,,,,,,
POINT (-84.502349 39.139546),,,,,,,,,,
POINT (-84.500402 39.140936),,,,,,,,,,
POINT (-83.65034 41.01714),C360095-A,360095,Blanchard Valley Hospital,1900 SOUTH MAIN STREET,FINDLAY,45840.0,39063.0,OH,"41.016304,-83.650934",POINT (-83.65034 41.01714)
POINT (-80.65933 40.368124),,,,,,,,,,
POINT (-82.45093 40.401227),,,,,,,,,,
POINT (-81.432239 41.626543),,,,,,,,,,
POINT (-83.594786 41.670849),,,,,,,,,,
POINT (-83.615835 41.621213),,,,,,,,,,
POINT (-84.186282 39.743904),,,,,,,,,,
POINT (-82.014245 39.975731),C360039-A,360039,Genesis Hospital (AKA Genesis Healthcare System),2951 MAPLE AVENUE,ZANESVILLE,43701.0,39119.0,OH,"39.973635,-82.012139",POINT (-82.014245 39.975731)
POINT (-82.933785 41.505799),,,,,,,,,,
POINT (-84.601066 41.135293),,,,,,,,,,
POINT (-82.977694 38.753905),C360008-A,360008,Southern Ohio Medical Center,1805 27TH STREET,PORTSMOUTH,45662.0,39145.0,OH,"38.745355,-82.990579",POINT (-82.977694 38.753905)
POINT (-81.403604 40.796853),,,,,,,,,,
POINT (-81.427757 40.852413),,,,,,,,,,
POINT (-81.39707 40.812296),C360070-A,360070,Mercy Medical Center,1320 MERCY DRIVE NW,CANTON,44708.0,39151.0,OH,"40.812287,-81.396939",POINT (-81.39707 40.812296)
POINT (-81.500173 41.07838),,,,,,,,,,
POINT (-81.335873 40.401478),,,,,,,,,,
POINT (-97.961942 35.047707),,,,,,,,,,
POINT (-95.406186 35.753621),,,,,,,,,,
POINT (-95.413749 35.765241),,,,,,,,,,
POINT (-97.392959 35.46648),,,,,,,,,,
POINT (-97.57455 35.52996),,,,,,,,,,
POINT (-97.501002 35.482317),,,,,,,,,,
POINT (-97.524291 35.477786),,,,,,,,,,
POINT (-97.600512 35.609023),,,,,,,,,,
POINT (-95.967148 36.147164),,,,,,,,,,
POINT (-95.857857 36.031925),,,,,,,,,,
POINT (-117.847454 44.796119),C381315-A,381315,Saint Alphonsus Medical Center - Baker City,3325 POCAHONTAS ROAD,BAKER CITY,97814.0,41001.0,OR,"44.794516,-117.847356",POINT (-117.847454 44.796119)
POINT (-123.252682 44.604311),C380014-A,380014,Good Samaritan Regional Medical Center,3600 NW SAMARITAN DRIVE,CORVALLIS,97330.0,41003.0,OR,"44.603215,-123.253181",POINT (-123.252682 44.604311)
POINT (-122.563082 45.433286),,,,,,,,,,
POINT (-122.558256 45.433472),,,,,,,,,,
POINT (-124.402426 43.113244),C381304-A,381304,Southern Coos Hospital and Health Center,900 11TH STREET SE,BANDON,97411.0,41011.0,OR,"43.11191,-124.401384",POINT (-124.402426 43.113244)
POINT (-121.266708 44.065757),,,,,,,,,,
POINT (-118.95922 44.417651),,,,,,,,,,
POINT (-122.831042 42.316486),,,,,,,,,,
POINT (-121.787112 42.252653),,,,,,,,,,
POINT (-124.117464 43.974589),,,,,,,,,,
POINT (-123.002589 44.0524),,,,,,,,,,
POINT (-123.028624 44.081376),,,,,,,,,,
POINT (-124.058598 44.629684),,,,,,,,,,
POINT (-123.045146 44.914296),,,,,,,,,,
POINT (-123.035112 44.932695),,,,,,,,,,
POINT (-122.983672 44.956186),,,,,,,,,,
POINT (-123.033167 44.932885),,,,,,,,,,
POINT (-122.679977 45.546373),,,,,,,,,,
POINT (-118.104856 45.319546),,,,,,,,,,
POINT (-117.28263 45.431754),,,,,,,,,,
POINT (-122.876046 45.539237),,,,,,,,,,
POINT (-122.68677 45.4992),,,,,,,,,,
POINT (-119.310948 45.84631),,,,,,,,,,
POINT (-121.523224 45.704561),,,,,,,,,,
POINT (-79.962158 40.423829),,,,,,,,,,
POINT (-75.948059 40.329863),,,,,,,,,,
POINT (-76.674557 40.265932),,,,,,,,,,
POINT (-80.064119 42.10317),,,,,,,,,,
POINT (-76.305328 40.046975),,,,,,,,,,
POINT (-75.480763 40.574019),,,,,,,,,,
POINT (-75.265557 39.993575),,,,,,,,,,
POINT (-76.72045 39.946523),,,,,,,,,,
POINT (-75.092028 40.066253),,,,,,,,,,
POINT (-75.152105 40.005105),,,,,,,,,,
POINT (-75.192955 39.94847),,,,,,,,,,
POINT (-75.144683 40.037),C390142-A,390142,Einstein Medical Center Philadelphia,5501 OLD YORK RD,PHILADELPHIA,19141.0,42101.0,PA,"40.03696,-75.14454",POINT (-75.144683 40.037)
POINT (-75.158761 39.949646),,,,,,,,,,
POINT (-75.19274 39.95046),,,,,,,,,,
POINT (-75.199512 39.957478),,,,,,,,,,
POINT (-79.916334 40.181842),,,,,,,,,,
POINT (-66.080416 18.392008),,,,,,,,,,
POINT (-71.478358 41.704716),,,,,,,,,,
POINT (-71.306193 41.497809),,,,,,,,,,
POINT (-71.465766 41.739045),,,,,,,,,,
POINT (-71.407066 41.811792),,,,,,,,,,
POINT (-71.397541 41.851687),,,,,,,,,,
POINT (-71.434909 41.833925),,,,,,,,,,
POINT (-71.495277 42.005438),,,,,,,,,,
POINT (-71.495931 41.431908),,,,,,,,,,
POINT (-71.826103 41.362757),C410013-A,410013,Westerly Hospital,25 WELLS STREET,WESTERLY,2891.0,44009.0,RI,"41.362161,-71.825406",POINT (-71.826103 41.362757)
POINT (-79.946542 32.785322),,,,,,,,,,
POINT (-79.953687 32.783692),,,,,,,,,,
POINT (-81.030118 34.027109),C420018-B,420018,Prisma Health - Midlands (FKA Palmetto Health),5 RICHLAND MEDICAL PARK DR,COLUMBIA,29203.0,45079.0,SC,"34.027082,-81.030597",POINT (-81.030118 34.027109)
POINT (-80.960396 33.978622),,,,,,,,,,
POINT (-81.939902 34.967853),,,,,,,,,,
POINT (-96.768199 44.307686),,,,,,,,,,
POINT (-103.474013 43.435153),C43003F-A,43003F,VA BLACK HILLS HEALTHCARE SYSTEM - HOT SPRINGS,500 NORTH 5TH STREET,HOT SPRINGS,57747.0,46047.0,SD,"43.428269,-103.469694",POINT (-103.474013 43.435153)
POINT (-103.478243 44.412816),,,,,,,,,,
POINT (-96.711305 43.534515),C430016-A,430016,Avera McKennan Hospital,1325 S CLIFF AVE  POST OFFICE BOX 5045,SIOUX FALLS,57117.0,46099.0,SD,"43.532137,-96.754973",POINT (-96.711305 43.534515)
POINT (-96.743276 43.536677),,,,,,,,,,
POINT (-103.224964 44.05861),,,,,,,,,,
POINT (-86.805008 36.140798),,,,,,,,,,
POINT (-86.801319 36.142271),,,,,,,,,,
POINT (-86.763179 36.1119),,,,,,,,,,
POINT (-85.257567 35.114154),,,,,,,,,,
POINT (-85.50935 36.16996),,,,,,,,,,
POINT (-86.38379 35.910703),,,,,,,,,,
POINT (-90.019185 35.137092),,,,,,,,,,
POINT (-82.386164 36.305074),,,,,,,,,,
POINT (-97.275451 30.099684),,,,,,,,,,
POINT (-97.135544 30.004677),,,,,,,,,,
POINT (-97.365957 31.078646),,,,,,,,,,
POINT (-98.570973 29.510993),,,,,,,,,,
POINT (-98.586731 29.540877),,,,,,,,,,
POINT (-98.576959 29.509462),,,,,,,,,,
POINT (-98.581743 29.514719),,,,,,,,,,
POINT (-98.391334 29.522742),,,,,,,,,,
POINT (-97.65277 30.566626),,,,,,,,,,
POINT (-94.074356 33.462514),C450801-C,450801,CHRISTUS St Michael Hospital (AKA CHRISTUS St Michael Health System),2600 SAINT MICHAEL DR,TEXARKANA,75501.0,48037.0,TX,"33.46406,-94.075651",POINT (-94.074356 33.462514)
POINT (-95.405109 29.185198),,,,,,,,,,
POINT (-95.39111 29.580088),,,,,,,,,,
POINT (-96.347638 30.655526),,,,,,,,,,
POINT (-96.291148 30.582607),,,,,,,,,,
POINT (-98.99238 31.677171),,,,,,,,,,
POINT (-96.717047 30.520966),,,,,,,,,,
POINT (-98.237881 30.733451),,,,,,,,,,
POINT (-97.654253 29.67253),,,,,,,,,,
POINT (-97.515284 25.979259),,,,,,,,,,
POINT (-97.670494 26.173233),,,,,,,,,,
POINT (-96.684108 33.218178),,,,,,,,,,
POINT (-96.76334 33.01938),,,,,,,,,,
POINT (-96.790452 33.014304),,,,,,,,,,
POINT (-96.772773 32.909572),,,,,,,,,,
POINT (-96.779294 32.788382),,,,,,,,,,
POINT (-96.78081 32.790567),C452022-A,452119,SELECT SPECIALTY HOSPITAL - DALLAS INC,3500 GASTON AVENUE,DALLAS,75246.0,48113.0,TX,"32.789478,-96.78127",POINT (-96.78081 32.790567)
POINT (-96.823006 32.761639),,,,,,,,,,
POINT (-96.878979 32.647578),,,,,,,,,,
POINT (-96.959226 32.835514),,,,,,,,,,
POINT (-97.16666 33.219108),,,,,,,,,,
POINT (-102.373157 31.844103),,,,,,,,,,
POINT (-106.350347 31.756116),C450107-A,450107,Del Sol Medical Center,10301 GATEWAY BLVD W,EL PASO,79925.0,48141.0,TX,"31.756902,-106.350571",POINT (-106.350347 31.756116)
POINT (-106.498581 31.770297),,,,,,,,,,
POINT (-106.499431 31.77126),C450002-A,450002,The Hospitals of Providence Memorial Campus,2001 N OREGON ST,EL PASO,79902.0,48141.0,TX,"31.770319,-106.500861",POINT (-106.499431 31.77126)
POINT (-106.352052 31.756383),,,,,,,,,,
POINT (-106.436022 31.771291),,,,,,,,,,
POINT (-95.631578 29.585705),,,,,,,,,,
POINT (-95.636038 29.602238),,,,,,,,,,
POINT (-94.776261 29.311443),,,,,,,,,,
POINT (-95.099816 29.479955),,,,,,,,,,
POINT (-94.987076 29.395307),,,,,,,,,,
POINT (-96.603837 33.787325),,,,,,,,,,
POINT (-94.730513 32.512426),,,,,,,,,,
POINT (-96.076972 30.392624),,,,,,,,,,
POINT (-95.632527 29.924945),,,,,,,,,,
POINT (-95.387875 29.72227),,,,,,,,,,
POINT (-95.400194 29.710477),,,,,,,,,,
POINT (-95.471493 30.000881),,,,,,,,,,
POINT (-95.54427 29.781628),,,,,,,,,,
POINT (-95.396888 29.70631),,,,,,,,,,
POINT (-95.748382 29.793043),,,,,,,,,,
POINT (-95.252945 30.050289),,,,,,,,,,
POINT (-95.624195 30.088211),,,,,,,,,,
POINT (-95.124954 29.544386),,,,,,,,,,
POINT (-95.127604 29.539927),,,,,,,,,,
POINT (-97.855081 30.00734),C670056-A,670056,SETON MC HAYS,6001 KYLE PKWY,KYLE,78640.0,48209.0,TX,"30.008853,-97.852649",POINT (-97.855081 30.00734)
POINT (-98.222166 26.185672),,,,,,,,,,
POINT (-98.224378 26.184225),,,,,,,,,,
POINT (-94.133248 30.087769),,,,,,,,,,
POINT (-94.131766 30.085582),C673030-A,673030,Kate Dishman Rehabilitation Hospital,2830  CALDER ST 6TH FL SOUTH,BEAUMONT,77702.0,48245.0,TX,"30.086587,-94.13148",POINT (-94.131766 30.085582)
POINT (-101.900795 33.574151),,,,,,,,,,
POINT (-95.91077 30.941703),,,,,,,,,,
POINT (-97.219633 31.523557),,,,,,,,,,
POINT (-97.198161 31.513921),,,,,,,,,,
POINT (-102.100037 31.99748),,,,,,,,,,
POINT (-95.460754 30.205458),,,,,,,,,,
POINT (-95.467149 30.20686),,,,,,,,,,
POINT (-97.395121 27.777489),C452085-A,452085,POST ACUTE MEDICAL Specialty Hospital of Corpus Christi North,"600 ELIZABETH ST,",CORPUS CHRISTI,78404.0,48355.0,TX,"27.775943,-97.396273",POINT (-97.395121 27.777489)
POINT (-97.387828 27.753559),,,,,,,,,,
POINT (-97.385905 27.750695),,,,,,,,,,
POINT (-94.938109 30.730112),,,,,,,,,,
POINT (-101.92194 35.204368),,,,,,,,,,
POINT (-95.291198 32.341703),,,,,,,,,,
POINT (-97.119123 32.750148),,,,,,,,,,
POINT (-97.125362 32.83425),,,,,,,,,,
POINT (-97.332832 32.730639),,,,,,,,,,
POINT (-97.343696 32.736093),,,,,,,,,,
POINT (-97.337793 32.739294),,,,,,,,,,
POINT (-97.34196 32.736359),,,,,,,,,,
POINT (-97.217364 32.763704),,,,,,,,,,
POINT (-99.73118 32.472136),,,,,,,,,,
POINT (-97.744938 30.405511),,,,,,,,,,
POINT (-97.88951 30.22696),C450865-A,450865,SETON SOUTHWEST HOSPITAL,7900 FM 1826,AUSTIN,78737.0,48453.0,TX,"30.226519,-97.892373",POINT (-97.88951 30.22696)
POINT (-97.704884 30.302662),,,,,,,,,,
POINT (-97.74249 30.306086),,,,,,,,,,
POINT (-97.742288 30.304828),,,,,,,,,,
POINT (-97.773736 30.226124),,,,,,,,,,
POINT (-97.733887 30.275402),,,,,,,,,,
POINT (-97.774344 30.227291),,,,,,,,,,
POINT (-97.75321 30.34349),,,,,,,,,,
POINT (-97.704243 30.41195),,,,,,,,,,
POINT (-95.561541 30.693737),,,,,,,,,,
POINT (-99.47629 27.607181),,,,,,,,,,
POINT (-98.578795 33.872379),,,,,,,,,,
POINT (-97.812755 30.53109),,,,,,,,,,
POINT (-97.712468 30.509309),,,,,,,,,,
POINT (-97.713839 30.5088),,,,,,,,,,
POINT (-111.837022 40.772019),,,,,,,,,,
POINT (-111.87139 40.687666),,,,,,,,,,
POINT (-111.86533 40.761013),,,,,,,,,,
POINT (-111.841289 40.758439),,,,,,,,,,
POINT (-78.441853 38.023969),,,,,,,,,,
POINT (-77.128648 38.889069),C490050-A,490050,Virginia Hospital Center - Arlington,1701 NORTH GEORGE MASON DRIVE,ARLINGTON,22205.0,51013.0,VA,"38.889602,-77.128169",POINT (-77.128648 38.889069)
POINT (-78.986764 38.093033),,,,,,,,,,
POINT (-78.498845 38.031998),,,,,,,,,,
POINT (-77.659056 37.466398),,,,,,,,,,
POINT (-77.225833 38.857674),,,,,,,,,,
POINT (-77.395904 38.96878),,,,,,,,,,
POINT (-77.37537 38.967868),,,,,,,,,,
POINT (-78.913002 36.713106),,,,,,,,,,
POINT (-76.392331 37.056027),,,,,,,,,,
POINT (-78.858352 38.406103),,,,,,,,,,
POINT (-77.519144 37.602229),,,,,,,,,,
POINT (-77.527804 37.604944),,,,,,,,,,
POINT (-76.742161 37.335033),,,,,,,,,,
POINT (-77.553153 38.93797),,,,,,,,,,
POINT (-78.104106 36.747656),,,,,,,,,,
POINT (-76.4854 37.06389),,,,,,,,,,
POINT (-76.471506 37.089722),,,,,,,,,,
POINT (-82.606446 36.940095),,,,,,,,,,
POINT (-77.284211 38.634953),,,,,,,,,,
POINT (-77.406391 37.540126),,,,,,,,,,
POINT (-77.42988 37.539755),,,,,,,,,,
POINT (-79.94277 37.32242),,,,,,,,,,
POINT (-78.867983 38.473938),,,,,,,,,,
POINT (-78.513714 38.871837),,,,,,,,,,
POINT (-76.132708 36.867747),,,,,,,,,,
POINT (-76.028381 36.864242),,,,,,,,,,
POINT (-78.193088 39.1916),,,,,,,,,,
POINT (-82.472039 36.942095),,,,,,,,,,
POINT (-82.781223 36.908321),,,,,,,,,,
POINT (-64.752261 17.733184),,,,,,,,,,
POINT (-73.206861 42.873275),,,,,,,,,,
POINT (-73.19633 44.480715),,,,,,,,,,
POINT (-72.956602 43.59909),C470005-A,470005,RUTLAND REGIONAL MEDICAL CENTER,160 ALLEN ST,RUTLAND,5701.0,50021.0,VT,"43.598286,-72.955119",POINT (-72.956602 43.59909)
POINT (-119.281121 46.280462),,,,,,,,,,
POINT (-123.414084 48.114635),,,,,,,,,,
POINT (-122.541457 45.619509),,,,,,,,,,
POINT (-122.583646 45.625741),,,,,,,,,,
POINT (-122.658429 45.639718),,,,,,,,,,
POINT (-122.927246 46.133938),,,,,,,,,,
POINT (-122.941192 46.130992),,,,,,,,,,
POINT (-119.869181 47.230969),,,,,,,,,,
POINT (-122.686122 48.21424),,,,,,,,,,
POINT (-122.790294 48.106132),,,,,,,,,,
POINT (-122.021824 47.536555),,,,,,,,,,
POINT (-122.178553 47.714882),,,,,,,,,,
POINT (-122.230984 47.585478),,,,,,,,,,
POINT (-122.23776 47.455664),,,,,,,,,,
POINT (-122.214182 47.441021),C500088-A,500088,Valley Medical Center,400 S 43RD ST,RENTON,98055.0,53033.0,WA,"47.445355,-122.215105",POINT (-122.214182 47.441021)
POINT (-122.379975 47.667175),C500027-B,500027,Swedish Medical Center - Ballard Campus,5300 TALLMAN AVE NW,SEATTLE,98107.0,53033.0,WA,"47.667428,-122.379611",POINT (-122.379975 47.667175)
POINT (-122.335826 47.712278),,,,,,,,,,
POINT (-122.329232 47.626516),,,,,,,,,,
POINT (-122.283119 47.664549),C503300-A,503300,Seattle Childrens Hospital,"4800 SAND POINT WAY NE, PO BOX C-5371",SEATTLE,98105.0,53033.0,WA,"47.66243,-122.282291",POINT (-122.283119 47.664549)
POINT (-122.307482 47.650506),,,,,,,,,,
POINT (-122.327809 47.61018),,,,,,,,,,
POINT (-122.682299 47.652149),,,,,,,,,,
POINT (-123.023965 46.791977),,,,,,,,,,
POINT (-119.782687 48.106824),,,,,,,,,,
POINT (-122.453527 47.25985),,,,,,,,,,
POINT (-122.448757 47.245469),,,,,,,,,,
POINT (-123.02871 48.529104),,,,,,,,,,
POINT (-122.275287 48.495516),,,,,,,,,,
POINT (-122.205029 47.999022),,,,,,,,,,
POINT (-122.335691 47.802953),,,,,,,,,,
POINT (-117.41333 47.648397),,,,,,,,,,
POINT (-117.411573 47.739551),,,,,,,,,,
POINT (-122.844427 47.052791),C500024-A,500024,Providence St Peter Hospital,413 LILLY ROAD NE,OLYMPIA,98506.0,53067.0,WA,"47.051325,-122.847115",POINT (-122.844427 47.052791)
POINT (-118.343522 46.062783),,,,,,,,,,
POINT (-122.468884 48.772153),,,,,,,,,,
POINT (-122.474841 48.772261),,,,,,,,,,
POINT (-117.169845 46.713462),,,,,,,,,,
POINT (-117.170415 46.71352),,,,,,,,,,
POINT (-120.550398 46.592728),,,,,,,,,,
POINT (-91.759027 45.508042),,,,,,,,,,
POINT (-88.010691 44.502022),,,,,,,,,,
POINT (-88.013044 44.501235),,,,,,,,,,
POINT (-89.400896 43.065385),,,,,,,,,,
POINT (-89.429062 43.077218),,,,,,,,,,
POINT (-89.400678 43.059124),,,,,,,,,,
POINT (-91.511101 44.793456),,,,,,,,,,
POINT (-91.51354 44.812055),,,,,,,,,,
POINT (-88.432084 43.7787),C520088-A,520088,St Agnes Hospital,430 E DIVISION ST,FOND DU LAC,54935.0,55039.0,WI,"43.777845,-88.43108",POINT (-88.432084 43.7787)
POINT (-89.63261 42.607239),,,,,,,,,,
POINT (-87.924446 42.566221),,,,,,,,,,
POINT (-91.239514 43.804625),,,,,,,,,,
POINT (-89.670273 44.965842),C520030-A,520030,Aspirus Wausau Hospital,333 PINE RIDGE BLVD,WAUSAU,54401.0,55073.0,WI,"44.965895,-89.668338",POINT (-89.670273 44.965842)
POINT (-87.645286 45.070828),,,,,,,,,,
POINT (-88.65145 44.884547),,,,,,,,,,
POINT (-87.933837 42.98536),,,,,,,,,,
POINT (-88.027316 43.038407),,,,,,,,,,
POINT (-87.976165 43.019538),,,,,,,,,,
POINT (-87.976165 43.073465),C520136-B,520136,Ascension SE Wisconsin Hospital - St Joseph Campus (FKA Wheaton Franciscan St Joseph),5000 W CHAMBERS ST,MILWAUKEE,53210.0,55079.0,WI,"43.074331,-87.976076",POINT (-87.976165 43.073465)
POINT (-87.927184 43.042616),,,,,,,,,,
POINT (-87.949132 42.988612),,,,,,,,,,
POINT (-87.879245 43.061301),,,,,,,,,,
POINT (-90.493043 44.001155),,,,,,,,,,
POINT (-87.92415 43.25618),,,,,,,,,,
POINT (-87.825225 42.733373),,,,,,,,,,
POINT (-89.007724 42.546767),,,,,,,,,,
POINT (-89.032942 42.686741),C520066-A,520066,Mercyhealth Hospital and Trauma Center - Janesville,1000 MINERAL POINT AVE,JANESVILLE,53548.0,55105.0,WI,"42.688107,-89.032921",POINT (-89.032942 42.686741)
POINT (-90.34447 43.648814),,,,,,,,,,
POINT (-88.242951 43.011349),,,,,,,,,,
POINT (-88.453832 44.187957),C520045-A,520045,ThedaCare Regional Medical Center - Neenah (FKA Theda Clark Medical Center),130 2ND ST,NEENAH,54956.0,55139.0,WI,"44.187825,-88.453253",POINT (-88.453832 44.187957)
POINT (-88.603055 44.013049),,,,,,,,,,
POINT (-82.428308 38.409533),,,,,,,,,,
POINT (-82.401335 38.431833),C510007-A,510007,St Marys Medical Center,2900 1ST AVENUE,HUNTINGTON,25702.0,54011.0,WV,"38.431938,-82.401405",POINT (-82.401335 38.431833)
POINT (-79.94639 39.66262),C510024-A,510024,Mon Health Medical Center (FKA Mon General Hospital),1200 JD ANDERSON DRIVE,MORGANTOWN,26505.0,54061.0,WV,"39.66233,-79.947677",POINT (-79.94639 39.66262)
POINT (-81.560353 39.270284),,,,,,,,,,
POINT (-105.557514 41.311605),,,,,,,,,,
POINT (-105.519557 44.289915),,,,,,,,,,
POINT (-104.816525 41.139981),,,,,,,,,,
POINT (-106.331942 42.845645),,,,,,,,,,
POINT (-109.073576 44.526071),,,,,,,,,,
POINT (-106.975673 44.807428),,,,,,,,,,
POINT (-109.233578 41.58406),,,,,,,,,,
POINT (-107.948409 44.013659),,,,,,,,,,
